ONEWEB-0267             
1 48985U 21060U   25093.65034695 -.00000090  00000+0 -26963-3 0  9999
2 48985  87.9054 316.3965 0001869  75.0631 285.0707 13.16594764181755
ONEWEB-0268             
1 48986U 21060V   25094.15066060 -.00000056  00000+0 -18028-3 0  9992
2 48986  87.9057 316.3030 0001914  82.1119 278.0229 13.16594629183374
ONEWEB-0269             
1 48987U 21060W   25093.67568244  .00000025  00000+0  31066-4 0  9992
2 48987  87.9056 316.4324 0001779  86.8742 273.2593 13.16593403181797
ONEWEB-0270             
1 48988U 21060X   25093.69309726 -.00000062  00000+0 -19448-3 0  9995
2 48988  87.9055 316.3991 0001729  68.2711 291.8604 13.16595722181831
ONEWEB-0271             
1 48989U 21060Y   25094.51639905  .00000023  00000+0  27308-4 0  9993
2 48989  87.9050 316.2155 0001834  75.8878 284.2457 13.16593521183236
ONEWEB-0272             
1 48990U 21060Z   25094.15857133  .00000154  00000+0  37008-3 0  9992
2 48990  87.9057 316.3184 0001843  77.4589 282.6748 13.16594535183146
ONEWEB-0273             
1 48991U 21060AA  25093.64876951 -.00000107  00000+0 -31393-3 0  9996
2 48991  87.9055 316.4054 0001620  76.9101 283.2210 13.16594474181757
ONEWEB-0274             
1 48992U 21060AB  25094.13005884 -.00001645  00000+0 -43382-2 0  9999
2 48992  87.9062 316.3427 0002258  81.9774 278.1613 13.16599572183159
